NORAD_CAT_ID,OBJECT_NAME,OBJECT_TYPE,EPOCH,MEAN_MOTION,ECCENTRICITY,INCLINATION,RA_OF_ASC_NODE,ARG_OF_PERICENTER,MEAN_ANOMALY,BSTAR,MEAN_MOTION_DOT,MEAN_MOTION_DDOT,TLE_LINE0,TLE_LINE1,TLE_LINE2,SEMIMAJOR_AXIS,PERIOD,APOGEE,PERIGEE,DECAYED
55938.0,STARLINK-5909,PAYLOAD,2023-09-28 12:49:22,14.9833408,0.0003196,70.0025,16.4377,278.1381,81.9415,-8.7387e-05,-1.136e-05,0.0,0 STARLINK-5909,1 55938U 23037AA  23271.53429291 -.00001136  00000-0 -87387-4 0  9995,2 55938  70.0025  16.4377 0003196 278.1381  81.9415 14.98334080 30532,6950.18,96.107,574.267,569.824,0.0
55938.0,STARLINK-5909,PAYLOAD,2023-09-28 14:25:30,14.98323998,0.000309,70.0026,16.2694,277.7782,82.3026,0.00013596,1.529e-05,0.0,0 STARLINK-5909,1 55938U 23037AA  23271.60105322  .00001529  00000-0  13596-3 0  9993,2 55938  70.0026  16.2694 0003090 277.7782  82.3026 14.98323998 30209,6950.211,96.107,574.224,569.929,0.0
55938.0,STARLINK-5909,PAYLOAD,2023-09-28 17:37:46,14.98328733,0.0003032,70.0027,15.9327,276.2317,83.8496,0.00016499,1.876e-05,0.0,0 STARLINK-5909,1 55938U 23037AA  23271.73456956  .00001876  00000-0  16499-3 0  9999,2 55938  70.0027  15.9327 0003032 276.2317  83.8496 14.98328733 30224,6950.197,96.107,574.169,569.955,0.0
55938.0,STARLINK-5909,PAYLOAD,2023-09-29 12:51:23,14.98330116,0.0003011,70.0031,13.914,262.1211,97.9606,2.3493e-05,1.87e-06,0.0,0 STARLINK-5909,1 55938U 23037AA  23272.53569114  .00000187  00000-0  23493-4 0  9996,2 55938  70.0031  13.9140 0003011 262.1211  97.9606 14.98330116 30681,6950.193,96.107,574.15,569.965,0.0
55938.0,STARLINK-5909,PAYLOAD,2023-09-29 16:03:39,14.9833301,0.0002891,70.0029,13.577,261.5041,98.5791,4.7013e-05,4.68e-06,0.0,0 STARLINK-5909,1 55938U 23037AA  23272.66920825  .00000468  00000-0  47013-4 0  9996,2 55938  70.0029  13.5770 0002891 261.5041  98.5791 14.98333010 30365,6950.184,96.107,574.058,570.039,0.0
55938.0,STARLINK-5909,PAYLOAD,2023-09-30 16:05:40,14.98333936,0.000299,70.0021,11.0516,269.6853,90.3963,6.2873e-06,-1.8e-07,0.0,0 STARLINK-5909,1 55938U 23037AA  23273.67060721 -.00000018  00000-0  62873-5 0  9992,2 55938  70.0021  11.0516 0002990 269.6853  90.3963 14.98333936 30850,6950.181,96.107,574.124,569.968,0.0
55938.0,STARLINK-5909,PAYLOAD,2023-10-01 12:55:24,14.98341629,0.0003138,70.0012,8.8634,268.7642,91.3157,7.8755e-05,8.47e-06,0.0,0 STARLINK-5909,1 55938U 23037AA  23274.53847745  .00000847  00000-0  78755-4 0  9991,2 55938  70.0012   8.8634 0003138 268.7642  91.3157 14.98341629 30984,6950.157,96.106,574.203,569.841,0.0
55938.0,STARLINK-5909,PAYLOAD,2023-10-01 16:07:40,14.98343267,0.0002977,70.0015,8.5257,265.1612,94.9207,0.00011167,1.24e-05,0.0,0 STARLINK-5909,1 55938U 23037AA  23274.67199421  .00001240  00000-0  11167-3 0  9998,2 55938  70.0015   8.5257 0002977 265.1612  94.9207 14.98343267 30663,6950.152,96.106,574.086,569.948,0.0
55938.0,STARLINK-5909,PAYLOAD,2023-10-02 00:08:21,14.98332425,0.0002632,70.002,7.684,273.9461,86.1397,-1.4414e-05,-2.65e-06,0.0,0 STARLINK-5909,1 55938U 23037AA  23275.00580433 -.00000265  00000-0 -14414-4 0  9990,2 55938  70.0020   7.6840 0002632 273.9461  86.1397 14.98332425 31055,6950.185,96.107,573.88,570.221,0.0
55938.0,STARLINK-5909,PAYLOAD,2023-10-02 09:45:10,14.98323075,0.0002849,70.0015,6.6737,270.0162,90.067,-9.5318e-05,-1.23e-05,0.0,0 STARLINK-5909,1 55938U 23037AA  23275.40637182 -.00001230  00000-0 -95318-4 0  9993,2 55938  70.0015   6.6737 0002849 270.0162  90.0670 14.98323075 31115,6950.214,96.107,574.059,570.099,0.0
55938.0,STARLINK-5909,PAYLOAD,2023-10-02 14:33:34,14.98322626,0.0002972,70.0017,6.1701,273.5888,86.4931,-0.00010298,-1.321e-05,0.0,0 STARLINK-5909,1 55938U 23037AA  23275.60665319 -.00001321  00000-0 -10298-3 0  9992,2 55938  70.0017   6.1701 0002972 273.5888  86.4931 14.98322626 30808,6950.216,96.107,574.146,570.015,0.0
55938.0,STARLINK-5909,PAYLOAD,2023-10-03 12:59:26,14.98338473,0.0003044,70.0014,3.8142,271.6641,88.4169,1.5451e-05,9.1e-07,0.0,0 STARLINK-5909,1 55938U 23037AA  23276.54127963  .00000091  00000-0  15451-4 0  9992,2 55938  70.0014   3.8142 0003044 271.6641  88.4169 14.98338473 31280,6950.167,96.106,574.147,569.916,0.0
55938.0,STARLINK-5909,PAYLOAD,2023-10-03 14:35:34,14.9833928,0.0002944,70.0014,3.6457,270.1527,89.9294,2.5841e-05,2.15e-06,0.0,0 STARLINK-5909,1 55938U 23037AA  23276.60803852  .00000215  00000-0  25841-4 0  9999,2 55938  70.0014   3.6457 0002944 270.1527  89.9294 14.98339280 30957,6950.164,96.106,574.075,569.983,0.0
55938.0,STARLINK-5909,PAYLOAD,2023-10-03 16:11:42,14.98342333,0.000305,70.0013,3.477,273.4685,86.6125,1.8033e-05,1.22e-06,0.0,0 STARLINK-5909,1 55938U 23037AA  23276.67479629  .00000122  00000-0  18033-4 0  9999,2 55938  70.0013   3.4770 0003050 273.4685  86.6125 14.98342333 30963,6950.155,96.106,574.14,569.9,0.0
55938.0,STARLINK-5909,PAYLOAD,2023-10-04 09:49:12,14.98310028,0.0003018,70.0018,1.6262,275.1035,84.978,0.00035062,4.091e-05,0.0,0 STARLINK-5909,1 55938U 23037AA  23277.40916754  .00004091  00000-0  35062-3 0  9995,2 55938  70.0018   1.6262 0003018 275.1035  84.9780 14.98310028 31411,6950.255,96.108,574.217,570.022,0.0
55938.0,STARLINK-5909,PAYLOAD,2023-10-04 13:01:27,14.98324602,0.0003112,70.0019,1.291,272.7059,87.3744,0.00016613,1.89e-05,0.0,0 STARLINK-5909,1 55938U 23037AA  23277.54268228  .00001890  00000-0  16613-3 0  9991,2 55938  70.0019   1.2910 0003112 272.7059  87.3744 14.98324602 31096,6950.21,96.107,574.237,569.912,0.0
55938.0,STARLINK-5909,PAYLOAD,2023-10-04 16:13:42,14.98358019,0.000318,70.0023,0.9543,276.0347,84.045,-0.00033757,-4.121e-05,0.0,0 STARLINK-5909,1 55938U 23037AA  23277.67619166 -.00004121  00000-0 -33757-3 0  9996,2 55938  70.0023   0.9543 0003180 276.0347  84.0450 14.98358019 31458,6950.106,96.105,574.181,569.761,0.0
55938.0,STARLINK-5909,PAYLOAD,2023-10-04 22:38:15,14.98339643,0.0002969,70.0029,0.2795,270.1391,89.9428,-0.00014992,-1.882e-05,0.0,0 STARLINK-5909,1 55938U 23037AA  23277.94323972 -.00001882  00000-0 -14992-3 0  9994,2 55938  70.0029   0.2795 0002969 270.1391  89.9428 14.98339643 31499,6950.163,96.106,574.092,569.965,0.0
55938.0,STARLINK-5909,PAYLOAD,2023-10-05 11:27:20,14.98330457,0.0002781,70.0024,358.9344,267.8927,92.1914,-7.9625e-05,-1.043e-05,0.0,0 STARLINK-5909,1 55938U 23037AA  23278.47732511 -.00001043  00000-0 -79625-4 0  9990,2 55938  70.0024 358.9344 0002781 267.8927  92.1914 14.98330457 31576,6950.191,96.107,573.989,570.124,0.0
55938.0,STARLINK-5909,PAYLOAD,2023-10-05 13:03:28,14.98330584,0.000284,70.0017,358.7656,267.4503,92.6331,-8.2397e-05,-1.076e-05,0.0,0 STARLINK-5909,1 55938U 23037AA  23278.54408508 -.00001076  00000-0 -82397-4 0  9990,2 55938  70.0017 358.7656 0002840 267.4503  92.6331 14.98330584 31247,6950.191,96.107,574.03,570.082,0.0
55938.0,STARLINK-5909,PAYLOAD,2023-10-05 14:39:36,14.98332124,0.0002842,70.0018,358.5972,268.3033,91.78,-6.5786e-05,-8.78e-06,0.0,0 STARLINK-5909,1 55938U 23037AA  23278.61084326 -.00000878  00000-0 -65786-4 0  9998,2 55938  70.0018 358.5972 0002842 268.3033  91.7800 14.98332124 31251,6950.186,96.107,574.027,570.076,0.0
55938.0,STARLINK-5909,PAYLOAD,2023-10-06 11:29:22,14.98323667,0.0002851,70.0013,356.4076,265.8382,94.2452,-6.3516e-05,-8.51e-06,0.0,0 STARLINK-5909,1 55938U 23037AA  23279.47872988 -.00000851  00000-0 -63516-4 0  9992,2 55938  70.0013 356.4076 0002851 265.8382  94.2452 14.98323667 31722,6950.212,96.107,574.059,570.096,0.0
55938.0,STARLINK-5909,PAYLOAD,2023-10-06 13:05:30,14.98325361,0.0002844,70.0014,356.2393,267.7582,92.3252,-6.9262e-05,-9.19e-06,0.0,0 STARLINK-5909,1 55938U 23037AA  23279.54548934 -.00000919  00000-0 -69262-4 0  9990,2 55938  70.0014 356.2393 0002844 267.7582  92.3252 14.98325361 31391,6950.207,96.107,574.049,570.096,0.0
55938.0,STARLINK-5909,PAYLOAD,2023-10-06 14:41:38,14.98326497,0.0002836,70.0014,356.0711,268.1722,91.9113,-5.3701e-05,-7.34e-06,0.0,0 STARLINK-5909,1 55938U 23037AA  23279.61224835 -.00000734  00000-0 -53701-4 0  9995,2 55938  70.0014 356.0711 0002836 268.1722  91.9113 14.98326497 31409,6950.204,96.107,574.04,570.098,0.0
55938.0,STARLINK-5909,PAYLOAD,2023-10-07 11:31:22,14.98331674,0.0002924,70.0011,353.8824,265.4495,94.633,0.00010517,1.162e-05,0.0,0 STARLINK-5909,1 55938U 23037AA  23280.48012171  .00001162  00000-0  10517-3 0  9991,2 55938  70.0011 353.8824 0002924 265.4495  94.6330 14.98331674 31876,6950.188,96.107,574.085,570.02,0.0
55938.0,STARLINK-5909,PAYLOAD,2023-10-07 13:07:30,14.98333173,0.000292,70.001,353.714,265.926,94.1565,9.4391e-05,1.034e-05,0.0,0 STARLINK-5909,1 55938U 23037AA  23280.54688101  .00001034  00000-0  94391-4 0  9991,2 55938  70.0010 353.7140 0002920 265.9260  94.1565 14.98333173 31541,6950.183,96.107,574.078,570.019,0.0
55938.0,STARLINK-5909,PAYLOAD,2023-10-07 14:43:38,14.98334709,0.0002896,70.0011,353.5457,265.7095,94.3734,0.00011304,1.256e-05,0.0,0 STARLINK-5909,1 55938U 23037AA  23280.61363945  .00001256  00000-0  11304-3 0  9993,2 55938  70.0011 353.5457 0002896 265.7095  94.3734 14.98334709 31554,6950.178,96.107,574.056,570.031,0.0
55938.0,STARLINK-5909,PAYLOAD,2023-10-08 09:57:15,14.98325522,0.0002738,70.0012,351.5263,266.8086,93.276,4.1291e-05,4e-06,0.0,0 STARLINK-5909,1 55938U 23037AA  23281.41476819  .00000400  00000-0  41291-4 0  9996,2 55938  70.0012 351.5263 0002738 266.8086  93.2760 14.98325522 32017,6950.207,96.107,573.975,570.169,0.0
55938.0,STARLINK-5909,PAYLOAD,2023-10-08 13:09:31,14.98325899,0.000282,70.0018,351.1922,269.2578,90.8257,0.00010808,1.197e-05,0.0,0 STARLINK-5909,1 55938U 23037AA  23281.54828606  .00001197  00000-0  10808-3 0  9998,2 55938  70.0018 351.1922 0002820 269.2578  90.8257 14.98325899 31690,6950.206,96.107,574.031,570.111,0.0
55938.0,STARLINK-5909,PAYLOAD,2023-10-08 14:45:39,14.9832649,0.0002835,70.0016,351.0239,269.5172,90.5662,0.00010975,1.217e-05,0.0,0 STARLINK-5909,1 55938U 23037AA  23281.61504572  .00001217  00000-0  10975-3 0  9997,2 55938  70.0016 351.0239 0002835 269.5172  90.5662 14.98326490 31704,6950.204,96.107,574.039,570.098,0.0
